[{
    "label": "北京Beijing010",
    "name": "北京",
    "pinyin": "Beijing",
    "zip": "010"
}, {
    "label": "重庆Chongqing023",
    "name": "重庆",
    "pinyin": "Chongqing",
    "zip": "023"
}, {
    "label": "上海Shanghai021",
    "name": "上海",
    "pinyin": "Shanghai",
    "zip": "021"
}, {
    "label": "天津Tianjin022",
    "name": "天津",
    "pinyin": "Tianjin",
    "zip": "022"
}, {
    "label": "长春Changchun0431",
    "name": "长春",
    "pinyin": "Changchun",
    "zip": "0431"
}, {
    "label": "长沙Changsha0731",
    "name": "长沙",
    "pinyin": "Changsha",
    "zip": "0731"
}, {
    "label": "常州Changzhou0519",
    "name": "常州",
    "pinyin": "Changzhou",
    "zip": "0519"
}, {
    "label": "成都Chengdu028",
    "name": "成都",
    "pinyin": "Chengdu",
    "zip": "028"
}, {
    "label": "大连Dalian0411",
    "name": "大连",
    "pinyin": "Dalian",
    "zip": "0411"
}, {
    "label": "东莞Dongguan0769",
    "name": "东莞",
    "pinyin": "Dongguan",
    "zip": "0769"
}, {
    "label": "佛山Foshan0757",
    "name": "佛山",
    "pinyin": "Foshan",
    "zip": "0757"
}, {
    "label": "福州Fuzhou0591",
    "name": "福州",
    "pinyin": "Fuzhou",
    "zip": "0591"
}, {
    "label": "广州Guangzhou020",
    "name": "广州",
    "pinyin": "Guangzhou",
    "zip": "020"
}, {
    "label": "贵阳Guiyang0851",
    "name": "贵阳",
    "pinyin": "Guiyang",
    "zip": "0851"
}, {
    "label": "哈尔滨Haerbin0451",
    "name": "哈尔滨",
    "pinyin": "Haerbin",
    "zip": "0451"
}, {
    "label": "海口Haikou0898",
    "name": "海口",
    "pinyin": "Haikou",
    "zip": "0898"
}, {
    "label": "邯郸Handan0310",
    "name": "邯郸",
    "pinyin": "Handan",
    "zip": "0310"
}, {
    "label": "杭州Hangzhou0571",
    "name": "杭州",
    "pinyin": "Hangzhou",
    "zip": "0571"
}, {
    "label": "合肥Hefei0551",
    "name": "合肥",
    "pinyin": "Hefei",
    "zip": "0551"
}, {
    "label": "惠州Huizhou0752",
    "name": "惠州",
    "pinyin": "Huizhou",
    "zip": "0752"
}, {
    "label": "焦作Jiaozuo0391",
    "name": "焦作",
    "pinyin": "Jiaozuo",
    "zip": "0391"
}, {
    "label": "嘉兴Jiaxing0573",
    "name": "嘉兴",
    "pinyin": "Jiaxing",
    "zip": "0573"
}, {
    "label": "吉林Jilin0423",
    "name": "吉林",
    "pinyin": "Jilin",
    "zip": "0423"
}, {
    "label": "济南Jinan0531",
    "name": "济南",
    "pinyin": "Jinan",
    "zip": "0531"
}, {
    "label": "昆明Kunming0871",
    "name": "昆明",
    "pinyin": "Kunming",
    "zip": "0871"
}, {
    "label": "兰州Lanzhou0931",
    "name": "兰州",
    "pinyin": "Lanzhou",
    "zip": "0931"
}, {
    "label": "柳州Liuzhou0772",
    "name": "柳州",
    "pinyin": "Liuzhou",
    "zip": "0772"
}, {
    "label": "洛阳Luoyang0379",
    "name": "洛阳",
    "pinyin": "Luoyang",
    "zip": "0379"
}, {
    "label": "南昌Nanchang0791",
    "name": "南昌",
    "pinyin": "Nanchang",
    "zip": "0791"
}, {
    "label": "南京Nanjing025",
    "name": "南京",
    "pinyin": "Nanjing",
    "zip": "025"
}, {
    "label": "南宁Nanning0771",
    "name": "南宁",
    "pinyin": "Nanning",
    "zip": "0771"
}]
